GLOBALSTAR M075         
1 37192U 10054E   25081.47889470 -.00000102  00000+0  10690-4 0  9998
2 37192  51.9935  85.5411 0000326 103.2598  57.2302 12.62262582665427
GLOBALSTAR M073         
1 37193U 10054F   25081.48165266 -.00000038  00000+0  36776-3 0  9990
2 37193  52.0129 359.2888 0000740  90.8845  80.0123 12.62269248666938
GLOBALSTAR M083         
1 37739U 11033A   25081.09617615 -.00000067  00000+0  20697-3 0  9998
2 37739  51.9865 309.3145 0000883  77.8273  81.9793 12.62260917636214
GLOBALSTAR M088         
1 37740U 11033B   25080.83181707 -.00000069  00000+0  19217-3 0  9997
2 37740  51.9723 215.6803 0000759 101.5368  56.9986 12.62264540631364
GLOBALSTAR M091         
1 37741U 11033C   25080.76926389 -.00000075  00000+0  16112-3 0  9991
2 37741  51.9990 179.2717 0000682  91.4728  81.8307 12.62266189632144
GLOBALSTAR M085         
1 37742U 11033D   25081.20239939 -.00000104  00000+0 -16156-5 0  9994
2 37742  51.9848 129.0684 0000526  95.3818 307.2167 12.62266600633208
GLOBALSTAR M081         
1 37743U 11033E   25080.86075231 -.00000089  00000+0  81921-4 0  9991
2 37743  51.9943 132.8418 0000620 108.2489  61.3501 12.62261938632810
GLOBALSTAR M089         
1 37744U 11033F   25080.50345644 -.00000090  00000+0  77688-4 0  9998
2 37744  51.9917  88.1721 0000396 138.0973  27.1332 12.62267626633612
